{
    "links": {
        "self": "http://www.neowsapp.com/rest/v1/neo/3740098?api_key=iIulBulltgU6a56xZRHN4H3l9WmuAYTsLGpBGhQ2"
    },
    "id": "3740098",
    "neo_reference_id": "3740098",
    "name": "(2016 AA166)",
    "designation": "2016 AA166",
    "nasa_jpl_url": "http://ssd.jpl.nasa.gov/sbdb.cgi?sstr=3740098",
    "absolute_magnitude_h": 25.1,
    "estimated_diameter": {
        "kilometers": {
            "estimated_diameter_min": 0.0253837029,
            "estimated_diameter_max": 0.0567596853
        },
        "meters": {
            "estimated_diameter_min": 25.3837029364,
            "estimated_diameter_max": 56.7596852866
        },
        "miles": {
            "estimated_diameter_min": 0.0157726969,
            "estimated_diameter_max": 0.0352688224
        },
        "feet": {
            "estimated_diameter_min": 83.279867942,
            "estimated_diameter_max": 186.2194458756
        }
    },
    "is_potentially_hazardous_asteroid": false,
    "close_approach_data": [
        {
            "close_approach_date": "2016-01-01",
            "close_approach_date_full": "2016-Jan-01 14:33",
            "epoch_date_close_approach": 1451658780000,
            "relative_velocity": {
                "kilometers_per_second": "14.6847822308",
                "kilometers_per_hour": "52865.2160310006",
                "miles_per_hour": "32848.3893721515"
            },
            "miss_distance": {
                "astronomical": "0.050018478",
                "lunar": "19.457187942",
                "kilometers": "7482657.76944186",
                "miles": "4649507.937383268"
            },
            "orbiting_body": "Earth"
        },
        {
            "close_approach_date": "2048-01-05",
            "close_approach_date_full": "2048-Jan-05 19:02",
            "epoch_date_close_approach": 2461863720000,
            "relative_velocity": {
                "kilometers_per_second": "15.4534928776",
                "kilometers_per_hour": "55632.5743592275",
                "miles_per_hour": "34567.9182178211"
            },
            "miss_distance": {
                "astronomical": "0.0233008396",
                "lunar": "9.0640266044",
                "kilometers": "3485755.973371652",
                "miles": "2165948.3254947176"
            },
            "orbiting_body": "Earth"
        }
    ],
    "orbital_data": {
        "orbit_id": "4",
        "orbit_determination_date": "2017-04-06 08:29:07",
        "first_observation_date": "2016-01-14",
        "last_observation_date": "2016-01-18",
        "data_arc_in_days": 4,
        "observations_used": 17,
        "orbit_uncertainty": "9",
        "minimum_orbit_intersection": ".0499864",
        "jupiter_tisserand_invariant": "3.091",
        "epoch_osculation": "2457402.5",
        "eccentricity": ".6621947603398514",
        "semi_major_axis": "2.527044317687161",
        "inclination": "8.757683584728968",
        "ascending_node_longitude": "298.1431387281423",
        "orbital_period": "1467.295935155725",
        "perihelion_distance": ".8536488113681281",
        "perihelion_argument": "111.0646285912216",
        "aphelion_distance": "4.200439824006193",
        "perihelion_time": "2457353.816607937847",
        "mean_anomaly": "11.94443514935181",
        "mean_motion": ".245349279156691",
        "equinox": "J2000",
        "orbit_class": {
            "orbit_class_type": "APO",
            "orbit_class_description": "Near-Earth asteroid orbits which cross the Earth’s orbit similar to that of 1862 Apollo",
            "orbit_class_range": "a (semi-major axis) > 1.0 AU; q (perihelion) < 1.017 AU"
        }
    },
    "is_sentry_object": false
}